[{"OBJECT_NAME":"COSMOS 2251 DEB","OBJECT_ID":"1993-036UA","EPOCH":"2026-03-05T15:09:37.802592","MEAN_MOTION":14.3286982,"ECCENTRICITY":0.0069349,"INCLINATION":73.9764,"RA_OF_ASC_NODE":261.5504,"ARG_OF_PERICENTER":55.5171,"MEAN_ANOMALY":7.188,"EPHEMERIS_TYPE":0,"CLASSIFICATION_TYPE":"U","NORAD_CAT_ID":34481,"ELEMENT_SET_NO":999,"REV_AT_EPOCH":88636,"BSTAR":0.00046975,"MEAN_MOTION_DOT":1.291e-5,"MEAN_MOTION_DDOT":0},{"OBJECT_NAME":"COSMOS 2251 DEB","OBJECT_ID":"1993-036UB","EPOCH":"2026-03-05T11:04:34.642848","MEAN_MOTION":14.71567427,"ECCENTRICITY":0.0037677,"INCLINATION":74.0349,"RA_OF_ASC_NODE":63.1075,"ARG_OF_PERICENTER":106.2204,"MEAN_ANOMALY":17.687,"EPHEMERIS_TYPE":0,"CLASSIFICATION_TYPE":"U","NORAD_CAT_ID":34482,"ELEMENT_SET_NO":999,"REV_AT_EPOCH":89403,"BSTAR":0.0022976,"MEAN_MOTION_DOT":0.00014439,"MEAN_MOTION_DDOT":0},{"OBJECT_NAME":"COSMOS 2251 DEB","OBJECT_ID":"1993-036UE","EPOCH":"2026-03-05T10:59:49.529760","MEAN_MOTION":13.54823158,"ECCENTRICITY":0.0379977,"INCLINATION":73.9138,"RA_OF_ASC_NODE":70.1073,"ARG_OF_PERICENTER":83.2952,"MEAN_ANOMALY":63.115,"EPHEMERIS_TYPE":0,"CLASSIFICATION_TYPE":"U","NORAD_CAT_ID":34544,"ELEMENT_SET_NO":999,"REV_AT_EPOCH":84002,"BSTAR":0.00057732,"MEAN_MOTION_DOT":6.1e-6,"MEAN_MOTION_DDOT":0},{"OBJECT_NAME":"COSMOS 2251 DEB","OBJECT_ID":"1993-036UG","EPOCH":"2026-03-05T12:44:42.871200","MEAN_MOTION":14.4583699,"ECCENTRICITY":0.0020149,"INCLINATION":74.0282,"RA_OF_ASC_NODE":94.7621,"ARG_OF_PERICENTER":158.5029,"MEAN_ANOMALY":353.3107,"EPHEMERIS_TYPE":0,"CLASSIFICATION_TYPE":"U","NORAD_CAT_ID":34546,"ELEMENT_SET_NO":999,"REV_AT_EPOCH":89222,"BSTAR":0.0005911,"MEAN_MOTION_DOT":2.077e-5,"MEAN_MOTION_DDOT":0},{"OBJECT_NAME":"COSMOS 2251 DEB","OBJECT_ID":"1993-036UH","EPOCH":"2026-03-05T16:09:23.851008","MEAN_MOTION":14.74442663,"ECCENTRICITY":0.0016258,"INCLINATION":74.03,"RA_OF_ASC_NODE":299.0065,"ARG_OF_PERICENTER":355.0632,"MEAN_ANOMALY":5.0378,"EPHEMERIS_TYPE":0,"CLASSIFICATION_TYPE":"U","NORAD_CAT_ID":34547,"ELEMENT_SET_NO":999,"REV_AT_EPOCH":89743,"BSTAR":0.001462,"MEAN_MOTION_DOT":9.711e-5,"MEAN_MOTION_DDOT":0},{"OBJECT_NAME":"COSMOS 2251 DEB","OBJECT_ID":"1993-036UP","EPOCH":"2026-03-05T16:08:01.449600","MEAN_MOTION":14.58767637,"ECCENTRICITY":0.0015606,"INCLINATION":74.0262,"RA_OF_ASC_NODE":33.9764,"ARG_OF_PERICENTER":95.6577,"MEAN_ANOMALY":318.7095,"EPHEMERIS_TYPE":0,"CLASSIFICATION_TYPE":"U","NORAD_CAT_ID":34553,"ELEMENT_SET_NO":999,"REV_AT_EPOCH":89305,"BSTAR":0.0017958,"MEAN_MOTION_DOT":8.385e-5,"MEAN_MOTION_DDOT":0},{"OBJECT_NAME":"COSMOS 2251 DEB","OBJECT_ID":"1993-036UQ","EPOCH":"2026-03-05T15:40:01.519104","MEAN_MOTION":14.38129104,"ECCENTRICITY":0.0023442,"INCLINATION":74.0388,"RA_OF_ASC_NODE":146.3038,"ARG_OF_PERICENTER":196.2718,"MEAN_ANOMALY":314.3866,"EPHEMERIS_TYPE":0,"CLASSIFICATION_TYPE":"U","NORAD_CAT_ID":34554,"ELEMENT_SET_NO":999,"REV_AT_EPOCH":88947,"BSTAR":0.00037639,"MEAN_MOTION_DOT":1.119e-5,"MEAN_MOTION_DDOT":0},{"OBJECT_NAME":"COSMOS 2251 DEB","OBJECT_ID":"1993-036US","EPOCH":"2026-03-05T03:18:11.384928","MEAN_MOTION":14.80815849,"ECCENTRICITY":0.00057211,"INCLINATION":74.0166,"RA_OF_ASC_NODE":322.5334,"ARG_OF_PERICENTER":351.965,"MEAN_ANOMALY":158.9691,"EPHEMERIS_TYPE":0,"CLASSIFICATION_TYPE":"U","NORAD_CAT_ID":34556,"ELEMENT_SET_NO":999,"REV_AT_EPOCH":89547,"BSTAR":0.0022581089,"MEAN_MOTION_DOT":0.00017436,"MEAN_MOTION_DDOT":0},{"OBJECT_NAME":"COSMOS 2251 DEB","OBJECT_ID":"1993-036UW","EPOCH":"2026-03-05T17:43:41.452608","MEAN_MOTION":14.74549572,"ECCENTRICITY":0.0011727,"INCLINATION":74.0194,"RA_OF_ASC_NODE":340.1712,"ARG_OF_PERICENTER":40.663,"MEAN_ANOMALY":342.4572,"EPHEMERIS_TYPE":0,"CLASSIFICATION_TYPE":"U","NORAD_CAT_ID":34560,"ELEMENT_SET_NO":999,"REV_AT_EPOCH":89474,"BSTAR":0.0023892,"MEAN_MOTION_DOT":0.0001593,"MEAN_MOTION_DDOT":0},{"OBJECT_NAME":"COSMOS 2251 DEB","OBJECT_ID":"1993-036UZ","EPOCH":"2026-03-04T23:05:19.418784","MEAN_MOTION":14.46849889,"ECCENTRICITY":0.00117069,"INCLINATION":74.0374,"RA_OF_ASC_NODE":50.1536,"ARG_OF_PERICENTER":134.5462,"MEAN_ANOMALY":257.035,"EPHEMERIS_TYPE":0,"CLASSIFICATION_TYPE":"U","NORAD_CAT_ID":34563,"ELEMENT_SET_NO":999,"REV_AT_EPOCH":89386,"BSTAR":0.00058059559,"MEAN_MOTION_DOT":2.081e-5,"MEAN_MOTION_DDOT":0},{"OBJECT_NAME":"COSMOS 2251 DEB","OBJECT_ID":"1993-036VA","EPOCH":"2026-03-05T12:05:36.230784","MEAN_MOTION":14.4085464,"ECCENTRICITY":0.0018781,"INCLINATION":74.0304,"RA_OF_ASC_NODE":84.8667,"ARG_OF_PERICENTER":178.0844,"MEAN_ANOMALY":333.5436,"EPHEMERIS_TYPE":0,"CLASSIFICATION_TYPE":"U","NORAD_CAT_ID":34564,"ELEMENT_SET_NO":999,"REV_AT_EPOCH":89198,"BSTAR":0.00030255,"MEAN_MOTION_DOT":9.45e-6,"MEAN_MOTION_DDOT":0},{"OBJECT_NAME":"COSMOS 2251 DEB","OBJECT_ID":"1993-036VD","EPOCH":"2026-03-05T06:29:41.320032","MEAN_MOTION":14.24113829,"ECCENTRICITY":0.007228,"INCLINATION":74.0442,"RA_OF_ASC_NODE":8.2271,"ARG_OF_PERICENTER":61.8516,"MEAN_ANOMALY":87.7751,"EPHEMERIS_TYPE":0,"CLASSIFICATION_TYPE":"U","NORAD_CAT_ID":34567,"ELEMENT_SET_NO":999,"REV_AT_EPOCH":88299,"BSTAR":0.00029119,"MEAN_MOTION_DOT":6.63e-6,"MEAN_MOTION_DDOT":0},{"OBJECT_NAME":"COSMOS 2251 DEB","OBJECT_ID":"1993-036VF","EPOCH":"2026-03-05T09:39:00.099936","MEAN_MOTION":14.25035574,"ECCENTRICITY":0.0159195,"INCLINATION":73.9902,"RA_OF_ASC_NODE":48.6208,"ARG_OF_PERICENTER":218.9204,"MEAN_ANOMALY":295.1025,"EPHEMERIS_TYPE":0,"CLASSIFICATION_TYPE":"U","NORAD_CAT_ID":34569,"ELEMENT_SET_NO":999,"REV_AT_EPOCH":88145,"BSTAR":0.00059765,"MEAN_MOTION_DOT":1.571e-5,"MEAN_MOTION_DDOT":0},{"OBJECT_NAME":"COSMOS 2251 DEB","OBJECT_ID":"1993-036VG","EPOCH":"2026-03-05T11:04:13.620864","MEAN_MOTION":13.99991945,"ECCENTRICITY":0.0192395,"INCLINATION":73.9559,"RA_OF_ASC_NODE":74.3958,"ARG_OF_PERICENTER":299.062,"MEAN_ANOMALY":215.6216,"EPHEMERIS_TYPE":0,"CLASSIFICATION_TYPE":"U","NORAD_CAT_ID":34570,"ELEMENT_SET_NO":999,"REV_AT_EPOCH":86758,"BSTAR":0.00088737,"MEAN_MOTION_DOT":1.506e-5,"MEAN_MOTION_DDOT":0},{"OBJECT_NAME":"COSMOS 2251 DEB","OBJECT_ID":"1993-036VH","EPOCH":"2026-03-05T13:59:00.337056","MEAN_MOTION":14.50698784,"ECCENTRICITY":0.0058558,"INCLINATION":74.0408,"RA_OF_ASC_NODE":26.9405,"ARG_OF_PERICENTER":40.8254,"MEAN_ANOMALY":319.7271,"EPHEMERIS_TYPE":0,"CLASSIFICATION_TYPE":"U","NORAD_CAT_ID":34571,"ELEMENT_SET_NO":999,"REV_AT_EPOCH":88494,"BSTAR":0.0036242,"MEAN_MOTION_DOT":0.00014566,"MEAN_MOTION_DDOT":0},{"OBJECT_NAME":"COSMOS 2251 DEB","OBJECT_ID":"1993-036VJ","EPOCH":"2026-03-05T03:52:36.541056","MEAN_MOTION":14.51754857,"ECCENTRICITY":0.00604309,"INCLINATION":74.0107,"RA_OF_ASC_NODE":320.2502,"ARG_OF_PERICENTER":13.6511,"MEAN_ANOMALY":137.6761,"EPHEMERIS_TYPE":0,"CLASSIFICATION_TYPE":"U","NORAD_CAT_ID":34572,"ELEMENT_SET_NO":999,"REV_AT_EPOCH":88573,"BSTAR":0.0023353709,"MEAN_MOTION_DOT":9.596e-5,"MEAN_MOTION_DDOT":0}]
