COSMOS 2251 DEB         
1 34481U 93036UA  26064.63168753  .00001291  00000+0  46975-3 0  9994
2 34481  73.9764 261.5504 0069349  55.5171   7.1880 14.32869820886364
COSMOS 2251 DEB         
1 34482U 93036UB  26064.46151207  .00014439  00000+0  22976-2 0  9994
2 34482  74.0349  63.1075 0037677 106.2204  17.6870 14.71567427894034
COSMOS 2251 DEB         
1 34544U 93036UE  26064.45821215  .00000610  00000+0  57732-3 0  9990
2 34544  73.9138  70.1073 0379977  83.2952  63.1150 13.54823158840022
COSMOS 2251 DEB         
1 34546U 93036UG  26064.53105175  .00002077  00000+0  59110-3 0  9992
2 34546  74.0282  94.7621 0020149 158.5029 353.3107 14.45836990892226
COSMOS 2251 DEB         
1 34547U 93036UH  26064.67319272  .00009711  00000+0  14620-2 0  9991
2 34547  74.0300 299.0065 0016258 355.0632   5.0378 14.74442663897431
COSMOS 2251 DEB         
1 34553U 93036UP  26064.67223900  .00008385  00000+0  17958-2 0  9993
2 34553  74.0262  33.9764 0015606  95.6577 318.7095 14.58767637893054
COSMOS 2251 DEB         
1 34554U 93036UQ  26064.65279536  .00001119  00000+0  37639-3 0  9995
2 34554  74.0388 146.3038 0023442 196.2718 314.3866 14.38129104889477
COSMOS 2251 DEB         
1 34556U 93036US  26064.13763177  .00017436  00000+0  22581-2 0  9997
2 34556  74.0166 322.5334 0005721 351.9650 158.9691 14.80815849895475
COSMOS 2251 DEB         
1 34560U 93036UW  26064.73867422  .00015930  00000+0  23892-2 0  9999
2 34560  74.0194 340.1712 0011727  40.6630 342.4572 14.74549572894747
COSMOS 2251 DEB         
1 34563U 93036UZ  26063.96203031  .00002081  00000+0  58060-3 0  9995
2 34563  74.0374  50.1536 0011706 134.5462 257.0350 14.46849889893865
COSMOS 2251 DEB         
1 34564U 93036VA  26064.50389156  .00000945  00000+0  30255-3 0  9993
2 34564  74.0304  84.8667 0018781 178.0844 333.5436 14.40854640891986
COSMOS 2251 DEB         
1 34567U 93036VD  26064.27061713  .00000663  00000+0  29119-3 0  9990
2 34567  74.0442   8.2271 0072280  61.8516  87.7751 14.24113829882990
COSMOS 2251 DEB         
1 34569U 93036VF  26064.40208449  .00001571  00000+0  59765-3 0  9995
2 34569  73.9902  48.6208 0159195 218.9204 295.1025 14.25035574881459
COSMOS 2251 DEB         
1 34570U 93036VG  26064.46126876  .00001506  00000+0  88737-3 0  9995
2 34570  73.9559  74.3958 0192395 299.0620 215.6216 13.99991945867588
COSMOS 2251 DEB         
1 34571U 93036VH  26064.58264279  .00014566  00000+0  36242-2 0  9992
2 34571  74.0408  26.9405 0058558  40.8254 319.7271 14.50698784884940
COSMOS 2251 DEB         
1 34572U 93036VJ  26064.16153404  .00009596  00000+0  23354-2 0  9991
2 34572  74.0107 320.2502 0060430  13.6511 137.6761 14.51754857885735
